QIANFAN-89              
1 63175U 25046S   25297.25338809  .00000143  00000+0  20381-3 0  9996
2 63175  88.9778 325.1626 0014459 268.0657  91.8838 13.50972771 40725
QIANFAN-90              
1 63176U 25046T   25297.28211483  .00000088  00000+0  11710-3 0  9992
2 63176  88.9778 325.1320 0011404 265.5964  94.3884 13.50974008 40743
